     3.04           N: GNSS NAV DATA    R: GLONASS          RINEX VERSION / TYPE
cnvtToRINEX 3.14.0  convertToRINEX OPR  20250615 162936 UTC PGM / RUN BY / DATE 
----------------------------------------------------------- COMMENT             
GLUT -0.232830643654D-08 0.000000000000D+00 233472 2371     TIME SYSTEM CORR    
    18                                                      LEAP SECONDS        
                                                            END OF HEADER       
R 7 2025 06 15 07 45 00 0.107531435788D-03 0.909494701773D-12 0.270600000000D+05
    -0.281129785156D+04-0.103610515594D+01 0.000000000000D+00 0.000000000000D+00
     0.158875170898D+05-0.249869823456D+01 0.372529029846D-08 0.500000000000D+01
     0.198148017578D+05 0.185592651367D+01 0.000000000000D+00 0.000000000000D+00
R23 2025 06 15 07 45 00-0.157671049237D-03-0.909494701773D-12 0.270900000000D+05
     0.663747851563D+04-0.187350463867D+01-0.931322574615D-09 0.000000000000D+00
     0.858732812500D+04 0.255274772644D+01 0.279396772385D-08 0.300000000000D+01
     0.230705175781D+05-0.411057472229D+00 0.000000000000D+00 0.000000000000D+00
R14 2025 06 15 07 45 00 0.286670401692D-04 0.000000000000D+00 0.270900000000D+05
     0.145345561523D+05 0.262983608246D+01-0.931322574615D-09 0.000000000000D+00
    -0.830557275391D+04 0.125955581665D+00 0.000000000000D+00-0.700000000000D+01
     0.192548364258D+05-0.193477821350D+01-0.186264514923D-08 0.000000000000D+00
R13 2025 06 15 07 45 00-0.599212944508D-04 0.000000000000D+00 0.270900000000D+05
     0.253494296875D+05 0.394269943237D+00-0.186264514923D-08 0.000000000000D+00
     0.507747070313D+03-0.116255760193D+00 0.000000000000D+00-0.200000000000D+01
     0.280305273438D+04-0.353525924683D+01 0.000000000000D+00 0.000000000000D+00
R24 2025 06 15 07 45 00-0.108810141683D-03-0.181898940355D-11 0.270900000000D+05
     0.166865546875D+05-0.139226245880D+01-0.931322574615D-09 0.000000000000D+00
    -0.100706411133D+05 0.177545166016D+01 0.000000000000D+00 0.200000000000D+01
     0.164801826172D+05 0.249410820007D+01-0.186264514923D-08 0.000000000000D+00
R22 2025 06 15 07 45 00 0.700745731592D-04 0.181898940355D-11 0.271200000000D+05
    -0.466845019531D+04-0.126444339752D+01 0.000000000000D+00 0.000000000000D+00
     0.190234116211D+05 0.184738731384D+01 0.372529029846D-08-0.300000000000D+01
     0.163656967773D+05-0.251066112518D+01 0.931322574615D-09 0.000000000000D+00
R 8 2025 06 15 07 45 00-0.467430800200D-05 0.000000000000D+00 0.271500000000D+05
     0.763052978516D+04-0.181726455688D+00-0.931322574615D-09 0.000000000000D+00
     0.235500024414D+05-0.853240013123D+00 0.372529029846D-08 0.600000000000D+01
     0.628353369141D+04 0.344868278503D+01 0.186264514923D-08 0.000000000000D+00
R15 2025 06 15 07 45 00 0.672657042742D-04 0.000000000000D+00 0.271800000000D+05
    -0.418474023438D+04 0.306352043152D+01 0.000000000000D+00 0.000000000000D+00
    -0.112535473633D+05 0.291979789734D+00 0.931322574615D-09 0.000000000000D+00
     0.225314892578D+05 0.714447975159D+00-0.279396772385D-08 0.000000000000D+00
R23 2025 06 15 08 15 00-0.157672911882D-03-0.909494701773D-12 0.288000000000D+05
     0.370926757813D+04-0.136099338531D+01 0.000000000000D+00 0.000000000000D+00
     0.132792607422D+05 0.261160373688D+01 0.372529029846D-08 0.300000000000D+01
     0.214472460938D+05-0.138084793091D+01 0.000000000000D+00 0.000000000000D+00
R14 2025 06 15 08 15 00 0.286670401692D-04 0.000000000000D+00 0.288000000000D+05
     0.187828457031D+05 0.205159473419D+01-0.931322574615D-09 0.000000000000D+00
    -0.840845751953D+04-0.214267730713D+00 0.000000000000D+00-0.700000000000D+01
     0.150732685547D+05-0.268134784698D+01-0.186264514923D-08 0.000000000000D+00
R24 2025 06 15 08 15 00-0.108812935650D-03-0.181898940355D-11 0.288000000000D+05
     0.141745244141D+05-0.135653209686D+01-0.931322574615D-09 0.000000000000D+00
    -0.627465771484D+04 0.241945552826D+01 0.931322574615D-09 0.200000000000D+01
     0.202757407227D+05 0.169583988190D+01-0.186264514923D-08 0.000000000000D+00
R15 2025 06 15 08 15 00 0.672657042742D-04 0.000000000000D+00 0.288000000000D+05
     0.143401318359D+04 0.312847518921D+01 0.000000000000D+00 0.000000000000D+00
    -0.111266196289D+05-0.154498100281D+00 0.931322574615D-09 0.000000000000D+00
     0.229323364258D+05-0.271970748901D+00-0.279396772385D-08 0.000000000000D+00
R 8 2025 06 15 08 15 00-0.467337667942D-05 0.000000000000D+00 0.288000000000D+05
     0.682304589844D+04-0.738873481750D+00 0.000000000000D+00 0.000000000000D+00
     0.214072641602D+05-0.149090862274D+01 0.372529029846D-08 0.600000000000D+01
     0.121694023438D+05 0.304898929596D+01 0.931322574615D-09 0.000000000000D+00
R13 2025 06 15 08 15 00-0.599222257733D-04 0.000000000000D+00 0.288000000000D+05
     0.252559838867D+05-0.497506141663D+00-0.186264514923D-08 0.000000000000D+00
     0.262619140625D+03-0.115589141846D+00 0.000000000000D+00-0.200000000000D+01
    -0.358656542969D+04-0.351821708679D+01 0.000000000000D+00 0.000000000000D+00
R 7 2025 06 15 08 15 00 0.107533298433D-03 0.909494701773D-12 0.288000000000D+05
    -0.517534619141D+04-0.158220481873D+01 0.000000000000D+00 0.000000000000D+00
     0.112466684570D+05-0.260794162750D+01 0.372529029846D-08 0.500000000000D+01
     0.223505644531D+05 0.943358421326D+00 0.000000000000D+00 0.000000000000D+00
